{"type": "FeatureCollection", "features": [ {"type": "Feature", "properties": {"norad_id": 66505, "name": "STARLINK-34766", "group": "last-30-days", "lat": 39.6699233793317, "lon": -105.88764061966634, "alt_km": 409.78917999840996, "timestamp": "2025-12-10T16:57:10.415548+00:00", "meta": {"OBJECT_NAME": "STARLINK-34766", "OBJECT_ID": "2025-263W", "EPOCH": "2025-12-10T12:00:02.998944", "MEAN_MOTION": 15.50611226, "ECCENTRICITY": 0.0001718, "INCLINATION": 43.0006, "RA_OF_ASC_NODE": 138.1884, "ARG_OF_PERICENTER": 263.4987, "MEAN_ANOMALY": 133.8579, "EPHEMERIS_TYPE": 0, "CLASSIFICATION_TYPE": "U", "NORAD_CAT_ID": 66505, "ELEMENT_SET_NO": 999, "REV_AT_EPOCH": 527, "BSTAR": -0.0016477, "MEAN_MOTION_DOT": -0.00095943, "MEAN_MOTION_DDOT": 0}, "tle": {"line1": "1 66505U 25263W   25344.50003471 -.00095943  00000+0 -16477-2 0  9996", "line2": "2 66505  43.0006 138.1884 0001718 263.4987 133.8579 15.50611226  5275"}}, "geometry": {"type": "Point", "coordinates": [-105.88764061966634, 39.6699233793317]}}, {"type": "Feature", "properties": {"norad_id": 66506, "name": "STARLINK-34765", "group": "last-30-days", "lat": 39.04901293370528, "lon": -103.5410155232316, "alt_km": 409.7869733190073, "timestamp": "2025-12-10T16:57:10.415560+00:00", "meta": {"OBJECT_NAME": "STARLINK-34765", "OBJECT_ID": "2025-263X", "EPOCH": "2025-12-10T12:00:02.998944", "MEAN_MOTION": 15.50616574, "ECCENTRICITY": 0.0001636, "INCLINATION": 43.0006, "RA_OF_ASC_NODE": 138.1843, "ARG_OF_PERICENTER": 260.52, "MEAN_ANOMALY": 138.7532, "EPHEMERIS_TYPE": 0, "CLASSIFICATION_TYPE": "U", "NORAD_CAT_ID": 66506, "ELEMENT_SET_NO": 999, "REV_AT_EPOCH": 527, "BSTAR": -0.0018133, "MEAN_MOTION_DOT": -0.00105443, "MEAN_MOTION_DDOT": 0}, "tle": {"line1": "1 66506U 25263X   25344.50003471 -.00105443  00000+0 -18133-2 0  9995", "line2": "2 66506  43.0006 138.1843 0001636 260.5200 138.7532 15.50616574  5270"}}, "geometry": {"type": "Point", "coordinates": [-103.5410155232316, 39.04901293370528]}}, {"type": "Feature", "properties": {"norad_id": 66507, "name": "STARLINK-34767", "group": "last-30-days", "lat": 37.6732651669311, "lon": -98.98866061174432, "alt_km": 409.8885416026351, "timestamp": "2025-12-10T16:57:10.415572+00:00", "meta": {"OBJECT_NAME": "STARLINK-34767", "OBJECT_ID": "2025-263Y", "EPOCH": "2025-12-10T12:00:02.998944", "MEAN_MOTION": 15.50588235, "ECCENTRICITY": 0.0001448, "INCLINATION": 43.0006, "RA_OF_ASC_NODE": 138.1734, "ARG_OF_PERICENTER": 264.6155, "MEAN_ANOMALY": 138.494, "EPHEMERIS_TYPE": 0, "CLASSIFICATION_TYPE": "U", "NORAD_CAT_ID": 66507, "ELEMENT_SET_NO": 999, "REV_AT_EPOCH": 527, "BSTAR": -0.00052822, "MEAN_MOTION_DOT": -0.00031216, "MEAN_MOTION_DDOT": 0}, "tle": {"line1": "1 66507U 25263Y   25344.50003471 -.00031216  00000+0 -52822-3 0  9996", "line2": "2 66507  43.0006 138.1734 0001448 264.6155 138.4940 15.50588235  5277"}}, "geometry": {"type": "Point", "coordinates": [-98.98866061174432, 37.6732651669311]}}, {"type": "Feature", "properties": {"norad_id": 66508, "name": "STARLINK-35608", "group": "last-30-days", "lat": 35.29092734669158, "lon": -92.47173610527402, "alt_km": 410.30149307570446, "timestamp": "2025-12-10T16:57:10.415582+00:00", "meta": {"OBJECT_NAME": "STARLINK-35608", "OBJECT_ID": "2025-263Z", "EPOCH": "2025-12-10T12:00:02.998944", "MEAN_MOTION": 15.50614057, "ECCENTRICITY": 0.0001607, "INCLINATION": 43.0005, "RA_OF_ASC_NODE": 138.1604, "ARG_OF_PERICENTER": 263.8171, "MEAN_ANOMALY": 145.0434, "EPHEMERIS_TYPE": 0, "CLASSIFICATION_TYPE": "U", "NORAD_CAT_ID": 66508, "ELEMENT_SET_NO": 999, "REV_AT_EPOCH": 527, "BSTAR": -0.0017527, "MEAN_MOTION_DOT": -0.00101963, "MEAN_MOTION_DDOT": 0}, "tle": {"line1": "1 66508U 25263Z   25344.50003471 -.00101963  00000+0 -17527-2 0  9996", "line2": "2 66508  43.0005 138.1604 0001607 263.8171 145.0434 15.50614057  5273"}}, "geometry": {"type": "Point", "coordinates": [-92.47173610527402, 35.29092734669158]}}, {"type": "Feature", "properties": {"norad_id": 66509, "name": "STARLINK-35598", "group": "last-30-days", "lat": 31.616691204861688, "lon": -84.41525735870104, "alt_km": 410.7027316770491, "timestamp": "2025-12-10T16:57:10.415592+00:00", "meta": {"OBJECT_NAME": "STARLINK-35598", "OBJECT_ID": "2025-263AA", "EPOCH": "2025-12-10T12:00:02.998944", "MEAN_MOTION": 15.50599111, "ECCENTRICITY": 0.000143, "INCLINATION": 43.0005, "RA_OF_ASC_NODE": 138.1389, "ARG_OF_PERICENTER": 262.5897, "MEAN_ANOMALY": 153.9411, "EPHEMERIS_TYPE": 0, "CLASSIFICATION_TYPE": "U", "NORAD_CAT_ID": 66509, "ELEMENT_SET_NO": 999, "REV_AT_EPOCH": 527, "BSTAR": -0.0012204, "MEAN_MOTION_DOT": -0.00071336, "MEAN_MOTION_DDOT": 0}, "tle": {"line1": "1 66509U 25263AA  25344.50003471 -.00071336  00000+0 -12204-2 0  9994", "line2": "2 66509  43.0005 138.1389 0001430 262.5897 153.9411 15.50599111  5275"}}, "geometry": {"type": "Point", "coordinates": [-84.41525735870104, 31.616691204861688]}}, {"type": "Feature", "properties": {"norad_id": 66510, "name": "STARLINK-35600", "group": "last-30-days", "lat": 34.421707429166766, "lon": -90.39182008099982, "alt_km": 410.3892183987473, "timestamp": "2025-12-10T16:57:10.415601+00:00", "meta": {"OBJECT_NAME": "STARLINK-35600", "OBJECT_ID": "2025-263AB", "EPOCH": "2025-12-10T12:00:02.998944", "MEAN_MOTION": 15.50614967, "ECCENTRICITY": 0.0001566, "INCLINATION": 43.0005, "RA_OF_ASC_NODE": 138.1544, "ARG_OF_PERICENTER": 263.6887, "MEAN_ANOMALY": 147.0883, "EPHEMERIS_TYPE": 0, "CLASSIFICATION_TYPE": "U", "NORAD_CAT_ID": 66510, "ELEMENT_SET_NO": 999, "REV_AT_EPOCH": 527, "BSTAR": -0.0017092, "MEAN_MOTION_DOT": -0.00099478, "MEAN_MOTION_DDOT": 0}, "tle": {"line1": "1 66510U 25263AB  25344.50003471 -.00099478  00000+0 -17092-2 0  9993", "line2": "2 66510  43.0005 138.1544 0001566 263.6887 147.0883 15.50614967  5275"}}, "geometry": {"type": "Point", "coordinates": [-90.39182008099982, 34.421707429166766]}}, {"type": "Feature", "properties": {"norad_id": 66511, "name": "STARLINK-35444", "group": "last-30-days", "lat": 32.58131195365464, "lon": -86.36059561151133, "alt_km": 410.61279861868115, "timestamp": "2025-12-10T16:57:10.415611+00:00", "meta": {"OBJECT_NAME": "STARLINK-35444", "OBJECT_ID": "2025-263AC", "EPOCH": "2025-12-10T12:00:02.998944", "MEAN_MOTION": 15.50608406, "ECCENTRICITY": 0.0001491, "INCLINATION": 43.0005, "RA_OF_ASC_NODE": 138.1447, "ARG_OF_PERICENTER": 263.8484, "MEAN_ANOMALY": 150.767, "EPHEMERIS_TYPE": 0, "CLASSIFICATION_TYPE": "U", "NORAD_CAT_ID": 66511, "ELEMENT_SET_NO": 999, "REV_AT_EPOCH": 527, "BSTAR": -0.001576, "MEAN_MOTION_DOT": -0.00091818, "MEAN_MOTION_DDOT": 0}, "tle": {"line1": "1 66511U 25263AC  25344.50003471 -.00091818  00000+0 -15760-2 0  9994", "line2": "2 66511  43.0005 138.1447 0001491 263.8484 150.7670 15.50608406  5276"}}, "geometry": {"type": "Point", "coordinates": [-86.36059561151133, 32.58131195365464]}}, {"type": "Feature", "properties": {"norad_id": 66512, "name": "STARLINK-35366", "group": "last-30-days", "lat": 30.62061749826798, "lon": -82.50444337741804, "alt_km": 410.85236621718286, "timestamp": "2025-12-10T16:57:10.415621+00:00", "meta": {"OBJECT_NAME": "STARLINK-35366", "OBJECT_ID": "2025-263AD", "EPOCH": "2025-12-10T12:00:02.998944", "MEAN_MOTION": 15.50607117, "ECCENTRICITY": 0.0001549, "INCLINATION": 43.0005, "RA_OF_ASC_NODE": 138.1347, "ARG_OF_PERICENTER": 260.0525, "MEAN_ANOMALY": 158.3925, "EPHEMERIS_TYPE": 0, "CLASSIFICATION_TYPE": "U", "NORAD_CAT_ID": 66512, "ELEMENT_SET_NO": 999, "REV_AT_EPOCH": 527, "BSTAR": -0.001458, "MEAN_MOTION_DOT": -0.00085039, "MEAN_MOTION_DDOT": 0}, "tle": {"line1": "1 66512U 25263AD  25344.50003471 -.00085039  00000+0 -14580-2 0  9992", "line2": "2 66512  43.0005 138.1347 0001549 260.0525 158.3925 15.50607117  5270"}}, "geometry": {"type": "Point", "coordinates": [-82.50444337741804, 30.62061749826798]}}, {"type": "Feature", "properties": {"norad_id": 66513, "name": "STARLINK-35692", "group": "last-30-days", "lat": 33.55928603110578, "lon": -88.4458452024686, "alt_km": 410.6016297320384, "timestamp": "2025-12-10T16:57:10.415631+00:00", "meta": {"OBJECT_NAME": "STARLINK-35692", "OBJECT_ID": "2025-263AE", "EPOCH": "2025-12-10T12:00:02.998944", "MEAN_MOTION": 15.50557994, "ECCENTRICITY": 0.0001553, "INCLINATION": 43.0005, "RA_OF_ASC_NODE": 138.1493, "ARG_OF_PERICENTER": 271.7099, "MEAN_ANOMALY": 140.9192, "EPHEMERIS_TYPE": 0, "CLASSIFICATION_TYPE": "U", "NORAD_CAT_ID": 66513, "ELEMENT_SET_NO": 999, "REV_AT_EPOCH": 527, "BSTAR": 0.0004695, "MEAN_MOTION_DOT": 0.00027277, "MEAN_MOTION_DDOT": 0}, "tle": {"line1": "1 66513U 25263AE  25344.50003471  .00027277  00000+0  46950-3 0  9998", "line2": "2 66513  43.0005 138.1493 0001553 271.7099 140.9192 15.50557994  5273"}}, "geometry": {"type": "Point", "coordinates": [-88.4458452024686, 33.55928603110578]}}, {"type": "Feature", "properties": {"norad_id": 66514, "name": "SENTINEL-6B", "group": "last-30-days", "lat": 65.87957031793586, "lon": -110.06974113897851, "alt_km": 1334.2189417886038, "timestamp": "2025-12-10T16:57:10.415643+00:00", "meta": {"OBJECT_NAME": "SENTINEL-6B", "OBJECT_ID": "2025-264A", "EPOCH": "2025-12-08T23:22:28.384896", "MEAN_MOTION": 12.84031992, "ECCENTRICITY": 0.00210406, "INCLINATION": 66.0385, "RA_OF_ASC_NODE": 170.2707, "ARG_OF_PERICENTER": 268.23, "MEAN_ANOMALY": 91.6307, "EPHEMERIS_TYPE": 0, "CLASSIFICATION_TYPE": "U", "NORAD_CAT_ID": 66514, "ELEMENT_SET_NO": 999, "REV_AT_EPOCH": 280, "BSTAR": 0.000106025, "MEAN_MOTION_DOT": -3.6e-07, "MEAN_MOTION_DDOT": 0}, "tle": {"line1": "1 66514U 25264A   25342.97393964 -.00000036  00000+0  10602-3 0  9998", "line2": "2 66514  66.0385 170.2707 0021040 268.2300  91.6307 12.84031992  2809"}}, "geometry": {"type": "Point", "coordinates": [-110.06974113897851, 65.87957031793586]}}]}